<?xml version="1.0" encoding="UTF-8"?>
<ndm xmlns:xsi="http://www.w3.org/2001/XMLSchema-instance" xsi:noNamespaceSchemaLocation="https://sanaregistry.org/r/ndmxml_unqualified/ndmxml-2.0.0-master-2.0.xsd">
<omm id="CCSDS_OMM_VERS" version="2.0">
<header><CREATION_DATE/><ORIGINATOR/></header><body><segment><metadata><OBJECT_NAME>ONEWEB-0656</OBJECT_NAME><OBJECT_ID>2023-029X</OBJECT_ID><CENTER_NAME>EARTH</CENTER_NAME><REF_FRAME>TEME</REF_FRAME><TIME_SYSTEM>UTC</TIME_SYSTEM><MEAN_ELEMENT_THEORY>SGP4</MEAN_ELEMENT_THEORY></metadata><data><meanElements><EPOCH>2024-12-21T02:29:15.669312</EPOCH><MEAN_MOTION>13.20773539</MEAN_MOTION><ECCENTRICITY>.000248</ECCENTRICITY><INCLINATION>87.9253</INCLINATION><RA_OF_ASC_NODE>22.4641</RA_OF_ASC_NODE><ARG_OF_PERICENTER>98.6754</ARG_OF_PERICENTER><MEAN_ANOMALY>261.4661</MEAN_ANOMALY></meanElements><tleParameters><EPHEMERIS_TYPE>0</EPHEMERIS_TYPE><CLASSIFICATION_TYPE>U</CLASSIFICATION_TYPE><NORAD_CAT_ID>55817</NORAD_CAT_ID><ELEMENT_SET_NO>999</ELEMENT_SET_NO><REV_AT_EPOCH>9014</REV_AT_EPOCH><BSTAR>.27505E-3</BSTAR><MEAN_MOTION_DOT>.125E-5</MEAN_MOTION_DOT><MEAN_MOTION_DDOT>0</MEAN_MOTION_DDOT></tleParameters></data></segment></body></omm>
<omm id="CCSDS_OMM_VERS" version="2.0">
<header><CREATION_DATE/><ORIGINATOR/></header><body><segment><metadata><OBJECT_NAME>ONEWEB-0657</OBJECT_NAME><OBJECT_ID>2023-029Y</OBJECT_ID><CENTER_NAME>EARTH</CENTER_NAME><REF_FRAME>TEME</REF_FRAME><TIME_SYSTEM>UTC</TIME_SYSTEM><MEAN_ELEMENT_THEORY>SGP4</MEAN_ELEMENT_THEORY></metadata><data><meanElements><EPOCH>2024-12-20T16:39:22.678272</EPOCH><MEAN_MOTION>13.19725032</MEAN_MOTION><ECCENTRICITY>.0002404</ECCENTRICITY><INCLINATION>87.9175</INCLINATION><RA_OF_ASC_NODE>53.0524</RA_OF_ASC_NODE><ARG_OF_PERICENTER>117.3516</ARG_OF_PERICENTER><MEAN_ANOMALY>242.7862</MEAN_ANOMALY></meanElements><tleParameters><EPHEMERIS_TYPE>0</EPHEMERIS_TYPE><CLASSIFICATION_TYPE>U</CLASSIFICATION_TYPE><NORAD_CAT_ID>55818</NORAD_CAT_ID><ELEMENT_SET_NO>999</ELEMENT_SET_NO><REV_AT_EPOCH>8722</REV_AT_EPOCH><BSTAR>-.10161E-2</BSTAR><MEAN_MOTION_DOT>-.394E-5</MEAN_MOTION_DOT><MEAN_MOTION_DDOT>0</MEAN_MOTION_DDOT></tleParameters></data></segment></body></omm>
<omm id="CCSDS_OMM_VERS" version="2.0">
<header><CREATION_DATE/><ORIGINATOR/></header><body><segment><metadata><OBJECT_NAME>ONEWEB-0658</OBJECT_NAME><OBJECT_ID>2023-029Z</OBJECT_ID><CENTER_NAME>EARTH</CENTER_NAME><REF_FRAME>TEME</REF_FRAME><TIME_SYSTEM>UTC</TIME_SYSTEM><MEAN_ELEMENT_THEORY>SGP4</MEAN_ELEMENT_THEORY></metadata><data><meanElements><EPOCH>2024-12-20T16:32:33.530208</EPOCH><MEAN_MOTION>13.19723673</MEAN_MOTION><ECCENTRICITY>.0001333</ECCENTRICITY><INCLINATION>87.9176</INCLINATION><RA_OF_ASC_NODE>52.9877</RA_OF_ASC_NODE><ARG_OF_PERICENTER>109.6209</ARG_OF_PERICENTER><MEAN_ANOMALY>250.5068</MEAN_ANOMALY></meanElements><tleParameters><EPHEMERIS_TYPE>0</EPHEMERIS_TYPE><CLASSIFICATION_TYPE>U</CLASSIFICATION_TYPE><NORAD_CAT_ID>55819</NORAD_CAT_ID><ELEMENT_SET_NO>999</ELEMENT_SET_NO><REV_AT_EPOCH>8723</REV_AT_EPOCH><BSTAR>-.11652E-3</BSTAR><MEAN_MOTION_DOT>-.34E-6</MEAN_MOTION_DOT><MEAN_MOTION_DDOT>0</MEAN_MOTION_DDOT></tleParameters></data></segment></body></omm>
<omm id="CCSDS_OMM_VERS" version="2.0">
<header><CREATION_DATE/><ORIGINATOR/></header><body><segment><metadata><OBJECT_NAME>ONEWEB-0660</OBJECT_NAME><OBJECT_ID>2023-029AA</OBJECT_ID><CENTER_NAME>EARTH</CENTER_NAME><REF_FRAME>TEME</REF_FRAME><TIME_SYSTEM>UTC</TIME_SYSTEM><MEAN_ELEMENT_THEORY>SGP4</MEAN_ELEMENT_THEORY></metadata><data><meanElements><EPOCH>2024-12-21T04:17:02.930496</EPOCH><MEAN_MOTION>13.14503616</MEAN_MOTION><ECCENTRICITY>.0001511</ECCENTRICITY><INCLINATION>87.9002</INCLINATION><RA_OF_ASC_NODE>37.6592</RA_OF_ASC_NODE><ARG_OF_PERICENTER>87.2629</ARG_OF_PERICENTER><MEAN_ANOMALY>272.8673</MEAN_ANOMALY></meanElements><tleParameters><EPHEMERIS_TYPE>0</EPHEMERIS_TYPE><CLASSIFICATION_TYPE>U</CLASSIFICATION_TYPE><NORAD_CAT_ID>55820</NORAD_CAT_ID><ELEMENT_SET_NO>999</ELEMENT_SET_NO><REV_AT_EPOCH>8877</REV_AT_EPOCH><BSTAR>.3769E-3</BSTAR><MEAN_MOTION_DOT>.153E-5</MEAN_MOTION_DOT><MEAN_MOTION_DDOT>0</MEAN_MOTION_DDOT></tleParameters></data></segment></body></omm>
<omm id="CCSDS_OMM_VERS" version="2.0">
<header><CREATION_DATE/><ORIGINATOR/></header><body><segment><metadata><OBJECT_NAME>ONEWEB-0661</OBJECT_NAME><OBJECT_ID>2023-029AB</OBJECT_ID><CENTER_NAME>EARTH</CENTER_NAME><REF_FRAME>TEME</REF_FRAME><TIME_SYSTEM>UTC</TIME_SYSTEM><MEAN_ELEMENT_THEORY>SGP4</MEAN_ELEMENT_THEORY></metadata><data><meanElements><EPOCH>2024-12-21T03:17:41.231328</EPOCH><MEAN_MOTION>13.14507136</MEAN_MOTION><ECCENTRICITY>.0001587</ECCENTRICITY><INCLINATION>87.9004</INCLINATION><RA_OF_ASC_NODE>37.7362</RA_OF_ASC_NODE><ARG_OF_PERICENTER>82.4290</ARG_OF_PERICENTER><MEAN_ANOMALY>277.7019</MEAN_ANOMALY></meanElements><tleParameters><EPHEMERIS_TYPE>0</EPHEMERIS_TYPE><CLASSIFICATION_TYPE>U</CLASSIFICATION_TYPE><NORAD_CAT_ID>55821</NORAD_CAT_ID><ELEMENT_SET_NO>999</ELEMENT_SET_NO><REV_AT_EPOCH>8873</REV_AT_EPOCH><BSTAR>-.21426E-3</BSTAR><MEAN_MOTION_DOT>-.67E-6</MEAN_MOTION_DOT><MEAN_MOTION_DDOT>0</MEAN_MOTION_DDOT></tleParameters></data></segment></body></omm>
<omm id="CCSDS_OMM_VERS" version="2.0">
<header><CREATION_DATE/><ORIGINATOR/></header><body><segment><metadata><OBJECT_NAME>ONEWEB-0662</OBJECT_NAME><OBJECT_ID>2023-029AC</OBJECT_ID><CENTER_NAME>EARTH</CENTER_NAME><REF_FRAME>TEME</REF_FRAME><TIME_SYSTEM>UTC</TIME_SYSTEM><MEAN_ELEMENT_THEORY>SGP4</MEAN_ELEMENT_THEORY></metadata><data><meanElements><EPOCH>2024-12-21T04:07:54.893568</EPOCH><MEAN_MOTION>13.14503569</MEAN_MOTION><ECCENTRICITY>.0001436</ECCENTRICITY><INCLINATION>87.9002</INCLINATION><RA_OF_ASC_NODE>37.7364</RA_OF_ASC_NODE><ARG_OF_PERICENTER>91.1419</ARG_OF_PERICENTER><MEAN_ANOMALY>268.9875</MEAN_ANOMALY></meanElements><tleParameters><EPHEMERIS_TYPE>0</EPHEMERIS_TYPE><CLASSIFICATION_TYPE>U</CLASSIFICATION_TYPE><NORAD_CAT_ID>55822</NORAD_CAT_ID><ELEMENT_SET_NO>999</ELEMENT_SET_NO><REV_AT_EPOCH>8880</REV_AT_EPOCH><BSTAR>.63683E-4</BSTAR><MEAN_MOTION_DOT>.36E-6</MEAN_MOTION_DOT><MEAN_MOTION_DDOT>0</MEAN_MOTION_DDOT></tleParameters></data></segment></body></omm>
<omm id="CCSDS_OMM_VERS" version="2.0">
<header><CREATION_DATE/><ORIGINATOR/></header><body><segment><metadata><OBJECT_NAME>ONEWEB-0663</OBJECT_NAME><OBJECT_ID>2023-029AD</OBJECT_ID><CENTER_NAME>EARTH</CENTER_NAME><REF_FRAME>TEME</REF_FRAME><TIME_SYSTEM>UTC</TIME_SYSTEM><MEAN_ELEMENT_THEORY>SGP4</MEAN_ELEMENT_THEORY></metadata><data><meanElements><EPOCH>2024-12-21T02:13:05.291904</EPOCH><MEAN_MOTION>13.20817958</MEAN_MOTION><ECCENTRICITY>.0001429</ECCENTRICITY><INCLINATION>87.9252</INCLINATION><RA_OF_ASC_NODE>22.5252</RA_OF_ASC_NODE><ARG_OF_PERICENTER>86.6398</ARG_OF_PERICENTER><MEAN_ANOMALY>273.4899</MEAN_ANOMALY></meanElements><tleParameters><EPHEMERIS_TYPE>0</EPHEMERIS_TYPE><CLASSIFICATION_TYPE>U</CLASSIFICATION_TYPE><NORAD_CAT_ID>55823</NORAD_CAT_ID><ELEMENT_SET_NO>999</ELEMENT_SET_NO><REV_AT_EPOCH>9013</REV_AT_EPOCH><BSTAR>.60118E-4</BSTAR><MEAN_MOTION_DOT>.37E-6</MEAN_MOTION_DOT><MEAN_MOTION_DDOT>0</MEAN_MOTION_DDOT></tleParameters></data></segment></body></omm>
<omm id="CCSDS_OMM_VERS" version="2.0">
<header><CREATION_DATE/><ORIGINATOR/></header><body><segment><metadata><OBJECT_NAME>ONEWEB-0664</OBJECT_NAME><OBJECT_ID>2023-029AE</OBJECT_ID><CENTER_NAME>EARTH</CENTER_NAME><REF_FRAME>TEME</REF_FRAME><TIME_SYSTEM>UTC</TIME_SYSTEM><MEAN_ELEMENT_THEORY>SGP4</MEAN_ELEMENT_THEORY></metadata><data><meanElements><EPOCH>2024-12-20T18:54:42.576192</EPOCH><MEAN_MOTION>13.20771272</MEAN_MOTION><ECCENTRICITY>.0002034</ECCENTRICITY><INCLINATION>87.9254</INCLINATION><RA_OF_ASC_NODE>22.6021</RA_OF_ASC_NODE><ARG_OF_PERICENTER>81.7421</ARG_OF_PERICENTER><MEAN_ANOMALY>278.3943</MEAN_ANOMALY></meanElements><tleParameters><EPHEMERIS_TYPE>0</EPHEMERIS_TYPE><CLASSIFICATION_TYPE>U</CLASSIFICATION_TYPE><NORAD_CAT_ID>55824</NORAD_CAT_ID><ELEMENT_SET_NO>999</ELEMENT_SET_NO><REV_AT_EPOCH>9010</REV_AT_EPOCH><BSTAR>-.46509E-3</BSTAR><MEAN_MOTION_DOT>-.176E-5</MEAN_MOTION_DOT><MEAN_MOTION_DDOT>0</MEAN_MOTION_DDOT></tleParameters></data></segment></body></omm>

</ndm>
