ONEWEB-0656             
1 55817U 23029X   24356.10365358  .00000125  00000+0  27505-3 0  9992
2 55817  87.9253  22.4641 0002480  98.6754 261.4661 13.20773539 90144
ONEWEB-0657             
1 55818U 23029Y   24355.69401248 -.00000394  00000+0 -10161-2 0  9994
2 55818  87.9175  53.0524 0002404 117.3516 242.7862 13.19725032 87222
ONEWEB-0658             
1 55819U 23029Z   24355.68927697 -.00000034  00000+0 -11652-3 0  9993
2 55819  87.9176  52.9877 0001333 109.6209 250.5068 13.19723673 87231
ONEWEB-0660             
1 55820U 23029AA  24356.17850614  .00000153  00000+0  37690-3 0  9994
2 55820  87.9002  37.6592 0001511  87.2629 272.8673 13.14503616 88777
ONEWEB-0661             
1 55821U 23029AB  24356.13728277 -.00000067  00000+0 -21426-3 0  9996
2 55821  87.9004  37.7362 0001587  82.4290 277.7019 13.14507136 88735
ONEWEB-0662             
1 55822U 23029AC  24356.17216312  .00000036  00000+0  63683-4 0  9999
2 55822  87.9002  37.7364 0001436  91.1419 268.9875 13.14503569 88805
ONEWEB-0663             
1 55823U 23029AD  24356.09242236  .00000037  00000+0  60118-4 0  9996
2 55823  87.9252  22.5252 0001429  86.6398 273.4899 13.20817958 90131
ONEWEB-0664             
1 55824U 23029AE  24355.78799278 -.00000176  00000+0 -46509-3 0  9998
2 55824  87.9254  22.6021 0002034  81.7421 278.3943 13.20771272 90104
